[
    {
        "Altitude(m)": 706805.2318351973,
        "Argument of Periapsis(deg)": 0.007973084830638947,
        "Eccentricity": 0.0,
        "Inclination(deg)": 45.0,
        "Latitude(deg)": 42.900258966211844,
        "Longitude(deg)": 91.90903079434591,
        "Mean Anomaly(deg)": 106.25505165323658,
        "RAAN(deg)": 79.99247364097926,
        "Satellite Name": "Constellation 1 358",
        "Satellite Number": 358,
        "Semi-Major Axis(m)": 7083131.272910544,
        "Time(s)": 133
    },
    {
        "Altitude(m)": 706801.5838077947,
        "Argument of Periapsis(deg)": 0.008033032836884352,
        "Eccentricity": 0.0,
        "Inclination(deg)": 45.0,
        "Latitude(deg)": 42.88380588264658,
        "Longitude(deg)": 91.9845279981294,
        "Mean Anomaly(deg)": 106.31575279348645,
        "RAAN(deg)": 79.99241705181367,
        "Satellite Name": "Constellation 1 358",
        "Satellite Number": 358,
        "Semi-Major Axis(m)": 7083131.272910544,
        "Time(s)": 134
    },
    {
        "Altitude(m)": 706797.9241406815,
        "Argument of Periapsis(deg)": 0.008092980843129758,
        "Eccentricity": 0.0,
        "Inclination(deg)": 45.0,
        "Latitude(deg)": 42.86729745137683,
        "Longitude(deg)": 92.05998286410252,
        "Mean Anomaly(deg)": 106.37645393373637,
        "RAAN(deg)": 79.99236046264812,
        "Satellite Name": "Constellation 1 358",
        "Satellite Number": 358,
        "Semi-Major Axis(m)": 7083131.272910544,
        "Time(s)": 135
    },
    {
        "Altitude(m)": 706794.252855604,
        "Argument of Periapsis(deg)": 0.008152928849375162,
        "Eccentricity": 0.0,
        "Inclination(deg)": 45.0,
        "Latitude(deg)": 42.85073373321336,
        "Longitude(deg)": 92.13539529739714,
        "Mean Anomaly(deg)": 106.43715507398625,
        "RAAN(deg)": 79.99230387348256,
        "Satellite Name": "Constellation 1 358",
        "Satellite Number": 358,
        "Semi-Major Axis(m)": 7083131.272910544,
        "Time(s)": 136
    },
    {
        "Altitude(m)": 706790.5699743768,
        "Argument of Periapsis(deg)": 0.008212876855620568,
        "Eccentricity": 0.0,
        "Inclination(deg)": 45.0,
        "Latitude(deg)": 42.83411478908722,
        "Longitude(deg)": 92.210765203711,
        "Mean Anomaly(deg)": 106.49785621423618,
        "RAAN(deg)": 79.99224728431697,
        "Satellite Name": "Constellation 1 358",
        "Satellite Number": 358,
        "Semi-Major Axis(m)": 7083131.272910544,
        "Time(s)": 137
    },
    {
        "Altitude(m)": 706786.8755188886,
        "Argument of Periapsis(deg)": 0.008272824861865974,
        "Eccentricity": 0.0,
        "Inclination(deg)": 45.0,
        "Latitude(deg)": 42.817440680049025,
        "Longitude(deg)": 92.28609248930739,
        "Mean Anomaly(deg)": 106.55855735448607,
        "RAAN(deg)": 79.99219069515141,
        "Satellite Name": "Constellation 1 358",
        "Satellite Number": 358,
        "Semi-Major Axis(m)": 7083131.272910544,
        "Time(s)": 138
    },
    {
        "Altitude(m)": 706783.1695110969,
        "Argument of Periapsis(deg)": 0.00833277286811138,
        "Eccentricity": 0.0,
        "Inclination(deg)": 45.0,
        "Latitude(deg)": 42.80071146726801,
        "Longitude(deg)": 92.36137706101528,
        "Mean Anomaly(deg)": 106.61925849473597,
        "RAAN(deg)": 79.99213410598584,
        "Satellite Name": "Constellation 1 358",
        "Satellite Number": 358,
        "Semi-Major Axis(m)": 7083131.272910544,
        "Time(s)": 139
    },
    {
        "Altitude(m)": 706779.4519730321,
        "Argument of Periapsis(deg)": 0.008392720874356788,
        "Eccentricity": 0.0,
        "Inclination(deg)": 45.0,
        "Latitude(deg)": 42.78392721203108,
        "Longitude(deg)": 92.43661882622933,
        "Mean Anomaly(deg)": 106.67995963498589,
        "RAAN(deg)": 79.99207751682026,
        "Satellite Name": "Constellation 1 358",
        "Satellite Number": 358,
        "Semi-Major Axis(m)": 7083131.272910544,
        "Time(s)": 140
    },
    {
        "Altitude(m)": 706775.7229267936,
        "Argument of Periapsis(deg)": 0.008452668880602192,
        "Eccentricity": 0.0,
        "Inclination(deg)": 45.0,
        "Latitude(deg)": 42.76708797574186,
        "Longitude(deg)": 92.51181752481233,
        "Mean Anomaly(deg)": 106.74066077523577,
        "RAAN(deg)": 79.99202092765469,
        "Satellite Name": "Constellation 1 358",
        "Satellite Number": 358,
        "Semi-Major Axis(m)": 7083131.272910544,
        "Time(s)": 141
    },
    {
        "Altitude(m)": 706771.9823945569,
        "Argument of Periapsis(deg)": 0.008512616886847598,
        "Eccentricity": 0.0,
        "Inclination(deg)": 45.0,
        "Latitude(deg)": 42.75019381991998,
        "Longitude(deg)": 92.58697340148471,
        "Mean Anomaly(deg)": 106.80136191548566,
        "RAAN(deg)": 79.99196433848913,
        "Satellite Name": "Constellation 1 358",
        "Satellite Number": 358,
        "Semi-Major Axis(m)": 7083131.272910544,
        "Time(s)": 142
    },
    {
        "Altitude(m)": 706768.2303985606,
        "Argument of Periapsis(deg)": 0.008572564893093004,
        "Eccentricity": 0.0,
        "Inclination(deg)": 45.0,
        "Latitude(deg)": 42.733244806199885,
        "Longitude(deg)": 92.66208619724046,
        "Mean Anomaly(deg)": 106.86206305573556,
        "RAAN(deg)": 79.99190774932356,
        "Satellite Name": "Constellation 1 358",
        "Satellite Number": 358,
        "Semi-Major Axis(m)": 7083131.272910544,
        "Time(s)": 143
    },
    {
        "Altitude(m)": 706764.466961118,
        "Argument of Periapsis(deg)": 0.008632512899338408,
        "Eccentricity": 0.0,
        "Inclination(deg)": 45.0,
        "Latitude(deg)": 42.7162409963302,
        "Longitude(deg)": 92.73715582173601,
        "Mean Anomaly(deg)": 106.92276419598544,
        "RAAN(deg)": 79.99185116015799,
        "Satellite Name": "Constellation 1 358",
        "Satellite Number": 358,
        "Semi-Major Axis(m)": 7083131.272910544,
        "Time(s)": 144
    },
    {
        "Altitude(m)": 706760.692104613,
        "Argument of Periapsis(deg)": 0.008692460905583814,
        "Eccentricity": 0.0,
        "Inclination(deg)": 45.0,
        "Latitude(deg)": 42.69918245217264,
        "Longitude(deg)": 92.81218218519346,
        "Mean Anomaly(deg)": 106.98346533623533,
        "RAAN(deg)": 79.99179457099243,
        "Satellite Name": "Constellation 1 358",
        "Satellite Number": 358,
        "Semi-Major Axis(m)": 7083131.272910544,
        "Time(s)": 145
    },
    {
        "Altitude(m)": 706756.9058515031,
        "Argument of Periapsis(deg)": 0.00875240891182922,
        "Eccentricity": 0.0,
        "Inclination(deg)": 45.0,
        "Latitude(deg)": 42.682069235701206,
        "Longitude(deg)": 92.88716519839984,
        "Mean Anomaly(deg)": 107.04416647648526,
        "RAAN(deg)": 79.99173798182684,
        "Satellite Name": "Constellation 1 358",
        "Satellite Number": 358,
        "Semi-Major Axis(m)": 7083131.272910544,
        "Time(s)": 146
    },
    {
        "Altitude(m)": 706753.1082243114,
        "Argument of Periapsis(deg)": 0.008812356918074627,
        "Eccentricity": 0.0,
        "Inclination(deg)": 45.0,
        "Latitude(deg)": 42.6649014090012,
        "Longitude(deg)": 92.96210477270725,
        "Mean Anomaly(deg)": 107.10486761673518,
        "RAAN(deg)": 79.99168139266128,
        "Satellite Name": "Constellation 1 358",
        "Satellite Number": 358,
        "Semi-Major Axis(m)": 7083131.272910544,
        "Time(s)": 147
    },
    {
        "Altitude(m)": 706749.2992456302,
        "Argument of Periapsis(deg)": 0.008872304924320031,
        "Eccentricity": 0.0,
        "Inclination(deg)": 45.0,
        "Latitude(deg)": 42.647679034268435,
        "Longitude(deg)": 93.03700065193541,
        "Mean Anomaly(deg)": 107.16556875698505,
        "RAAN(deg)": 79.99162480349571,
        "Satellite Name": "Constellation 1 358",
        "Satellite Number": 358,
        "Semi-Major Axis(m)": 7083131.272910544,
        "Time(s)": 148
    },
    {
        "Altitude(m)": 706745.4789381247,
        "Argument of Periapsis(deg)": 0.008932252930565437,
        "Eccentricity": 0.0,
        "Inclination(deg)": 45.0,
        "Latitude(deg)": 42.63040217380824,
        "Longitude(deg)": 93.11185308476097,
        "Mean Anomaly(deg)": 107.22626989723499,
        "RAAN(deg)": 79.99156821433014,
        "Satellite Name": "Constellation 1 358",
        "Satellite Number": 358,
        "Semi-Major Axis(m)": 7083131.272910544,
        "Time(s)": 149
    },
    {
        "Altitude(m)": 706741.647324537,
        "Argument of Periapsis(deg)": 0.008992200936810843,
        "Eccentricity": 0.0,
        "Inclination(deg)": 45.0,
        "Latitude(deg)": 42.6130708900346,
        "Longitude(deg)": 93.18666181613281,
        "Mean Anomaly(deg)": 107.28697103748486,
        "RAAN(deg)": 79.99151162516458,
        "Satellite Name": "Constellation 1 358",
        "Satellite Number": 358,
        "Semi-Major Axis(m)": 7083131.272910544,
        "Time(s)": 150
    },
    {
        "Altitude(m)": 706737.8044276679,
        "Argument of Periapsis(deg)": 0.009052148943056249,
        "Eccentricity": 0.0,
        "Inclination(deg)": 45.0,
        "Latitude(deg)": 42.5956852454692,
        "Longitude(deg)": 93.26142675966203,
        "Mean Anomaly(deg)": 107.34767217773476,
        "RAAN(deg)": 79.99145503599901,
        "Satellite Name": "Constellation 1 358",
        "Satellite Number": 358,
        "Semi-Major Axis(m)": 7083131.272910544,
        "Time(s)": 151
    }
]